name,address,email,website,phone,lat,lon
Дворовая территория,"Шипиловский проезд, дом 57, корпус 2",sosbr@mos.ru,orehovo-borisovo-juzhnoe.mos.ru,(495) 343-24-83,37.708452253916,55.6041160678759
Дворовая территория,"Днепропетровская улица, дом 16, корпус 4",mchertanovo@yandex.ru,chertanovocentr.ru,(495) 389-16-66,37.5804820702248,55.6168641489517
Дворовая территория,"Кировоградская улица, дом 44А, корпус 2",chu-zhil@yandex.ru,chertanovocentr.mos.ru,(495) 381-66-51,37.5945987579086,55.5986926369269
Физкультурно-оздоровительный комплекс «Учебно-спортивная база ЦСКА»,"3-я Песчаная улица, дом 2",brd@cska.ru,cska.ru,(499) 157-75-91,37.5185096940859,55.7925406644078
Физкультурно-оздоровительный комплекс «Учебно-спортивная база ЦСКА»,"3-я Песчаная улица, дом 2",brd@cska.ru,cska.ru,(499) 157-75-91,37.5187698683607,55.7925844709482
Физкультурно-оздоровительный комплекс «Учебно-спортивная база ЦСКА»,"3-я Песчаная улица, дом 2",brd@cska.ru,cska.ru,(499) 157-75-91,37.5186652622087,55.7919568723254
Физкультурно-оздоровительный комплекс «Учебно-спортивная база ЦСКА»,"3-я Песчаная улица, дом 2",brd@cska.ru,cska.ru,(499) 157-75-91,37.5189361653197,55.7920038241632
Физкультурно-оздоровительный комплекс «Учебно-спортивная база ЦСКА»,"3-я Песчаная улица, дом 2",brd@cska.ru,cska.ru,(499) 157-75-91,37.5191856107579,55.7920477372523
Физкультурно-оздоровительный комплекс «Учебно-спортивная база ЦСКА»,"3-я Песчаная улица, дом 2",brd@cska.ru,cska.ru,(499) 157-75-91,37.519137330996,55.791669025998
Дворовая территория,"Астрадамская улица, дом 15",zhil-tim@mail.ru,zhiltim-peo.wixsite.com/plumber-ru,(495) 611-27-74,37.5620301347814,55.8152278540107
Дворовая территория,"Астрадамская улица, дом 15",zhil-tim@mail.ru,zhiltim-peo.wixsite.com/plumber-ru,(495) 611-27-74,37.5618294909251,55.8151796838542
Объединенный санаторий и дом отдыха «Десна»,"посёлок Воскресенское, дом 26",office@desna-udp.ru,desna-udp.ru,(495) 659-42-68,37.4039114921056,55.5224549361135
ГАУК г. Москвы «ГМЗ «Кузьминки-Люблино»,"Летняя улица, дом 1, строение 1",mgomz@culture.mos.ru,www.mgomz.ru,(495) 350-15-53,37.7384450405277,55.6890676785308
ГАУК г. Москвы «ГМЗ «Кузьминки-Люблино»,"Летняя улица, дом 1, строение 1",mgomz@culture.mos.ru,www.mgomz.ru,(495) 350-15-53,37.7385630577249,55.688689833374
ГАУК г. Москвы «ГМЗ «Кузьминки-Люблино»,"Летняя улица, дом 1, строение 1",mgomz@culture.mos.ru,www.mgomz.ru,(495) 350-15-53,37.7387454479374,55.6884317226637
ГАУК г. Москвы «ГМЗ «Кузьминки-Люблино»,"Летняя улица, дом 1, строение 1",mgomz@culture.mos.ru,www.mgomz.ru,(495) 350-15-53,37.7376242845696,55.6885309927148
"Парк, озелененная городская территория «Парк «Фестивальный»","улица Сущёвский Вал, дом 56, строение 4",,mospark.ru/home/parki-moskvy/parki-tsao/festivalnyj-park.html,(495) 688-57-87,37.6215576738693,55.791195364402
"Парк, озелененная городская территория «Северное Тушино»","улица Свободы, дом 52",info@mosparks.ru,mosparks.ru/,(495) 640-73-55,37.4503057991124,55.864078719241
Спортивный комплекс «Дворец детского спорта»,"Рабочая улица, дом 53, строение 1",sekretar.dds@bk.ru,dds.mossport.ru/,(495) 670-21-60,37.6891953733566,55.7404175866672
Спортивный комплекс «Дворец детского спорта»,"Рабочая улица, дом 53, строение 1",sekretar.dds@bk.ru,dds.mossport.ru/,(495) 670-21-60,37.6889730282248,55.7407101786465
Дворовая территория,"Беломорская улица, дом 14, корпус 1",artostroverh@mail.ru,levoberezhny.mos.ru/,(495) 456-10-01,37.4718313462964,55.8616646742999
"Парк, озелененная городская территория «Парк у прудов «Радуга»","Вешняковская улица, дом 16",ppkio@mail.ru,www.perovskiy-park.ru/,(495) 309-53-42,37.8169248590678,55.7316077347261
"Парк, озелененная городская территория «Парк у прудов «Радуга»","Вешняковская улица, дом 16",ppkio@mail.ru,www.perovskiy-park.ru/,(495) 309-53-42,37.82280426123,55.7311698114824
Дворовая территория,"город Зеленоград, корпус 1204",gbukrukovo@zelao.mos.ru,gbukrukovo.ru/,(499) 731-77-78,37.1952463057402,55.9990032846446
Стадион (1500 и более мест) «Ангстрем»,"город Зеленоград, Озёрная аллея, дом 3",s112@mossport.ru,s112.mossport.ru,(903) 130-05-70,37.2238937201384,55.9821419248601
Стадион (1500 и более мест) «Ангстрем»,"город Зеленоград, Озёрная аллея, дом 3",s112@mossport.ru,s112.mossport.ru,(903) 130-05-70,37.2241592588308,55.9821009029499
Стадион (1500 и более мест) «Ангстрем»,"город Зеленоград, Озёрная аллея, дом 3",s112@mossport.ru,s112.mossport.ru,(903) 130-05-70,37.2244271863657,55.982085448528
Дворовая территория,"Голубинская улица, дом 25, корпус 1",yasenevo@uzao.mos.ru,yasenevo.mos.ru,(495) 422-02-33,37.5325871050748,55.5981760295014
"Лесопарк «Терлецкий», Природно-исторический парк «Измайлово»","улица Металлургов, дом 41, строение 1",ooptvao@gmail.com,www.mosecovao.info/vao_eco/ru,(499) 367-89-18,37.8100370496999,55.7615468150598
Спортивный комплекс «Яуза»,"Олонецкий проезд, дом 5",mso@mos.sport,mos.sport/,(495) 681-01-48,37.6648793415668,55.8799262939929
Физкультурно-оздоровительный комплекс «Южное Бутово»,"улица Поляны, дом 35",yuzhnoebutovofok@mgfso.ru,mgfso.mossport.ru/object,(495) 716-40-27,37.5498118874827,55.5507939116891
Конноспортивная база «ГБУ «СШОР «Северный» Москомспорта»,"9-я Северная линия, дом 1Б, строение 4",info@sport-severny.ru,sport-severny.ru,(499) 767-75-83,37.5554906083812,55.9371403984265
Комплекс спортивных сооружений ГБУ «ЦОП» Москомспорта,"Преображенская площадь, дом 4",cop@mossport.ru,cop.mossport.ru/,(499) 780-15-82,37.8781831909209,55.815878455075
Спортивный комплекс «Борисово»,"улица Борисовские Пруды, дом 29",borisovosk@mgfso.ru,mgfso.mossport.ru/object,(495) 390-33-75,37.7267567730046,55.6358517603654
"Парк, озелененная городская территория «Северное Тушино»","улица Свободы, дом 52",info@mosparks.ru,mosparks.ru/,(495) 640-73-55,37.4537740314207,55.8562477325334
"Парк, озелененная городская территория «Северное Тушино»","улица Свободы, дом 52",info@mosparks.ru,mosparks.ru/,(495) 640-73-55,37.4497290555593,55.8633518523807
Сквер по Олонецкому проезду,"Олонецкий проезд, дом 20",info@bapark.ru,bapark.ru,(499) 184-34-22,37.6552381906024,55.8740404943231
Парк по Ангарской улице,"Ангарская улица, дом 53, корпус 1",Liapark@ya.ru,liapark.ru/park-angarskie-prudy,(499) 908-35-00,37.5298324512436,55.8769740993383
"Лесопарк «Терлецкий», Природно-исторический парк «Измайлово»","улица Металлургов, дом 41, строение 1",ooptvao@gmail.com,www.mosecovao.info/vao_eco/ru,(499) 367-89-18,37.8098835817643,55.7615392987363
Спортивный комплекс «Яуза»,"Олонецкий проезд, дом 5",mso@mos.sport,mos.sport/,(495) 681-01-48,37.6651462213645,55.8799866250301
Спортивный комплекс «Яуза»,"Олонецкий проезд, дом 5",mso@mos.sport,mos.sport/,(495) 681-01-48,37.665691100871,55.8800967053655
Спортивный комплекс «Яуза»,"Олонецкий проезд, дом 5",mso@mos.sport,mos.sport/,(495) 681-01-48,37.6654211477881,55.8800393121651
Парк «Гольяново»,"Алтайская улица, дом 4",info@post.gbugol.ru,golyanovo.mos.ru/,(495) 469-82-81,37.8119698279346,55.8213248613456
"Парк, озелененная городская территория парк имени Юрия Лужкова","проспект Андропова, дом 58А",parkkuzminki@culture.mos.ru,www.park-kuzminki.ru,(499) 175-33-69,37.6552628754398,55.6647336687921
Стадион (1500 и более мест) «Ангстрем»,"город Зеленоград, Озёрная аллея, дом 3",s112@mossport.ru,s112.mossport.ru,(903) 130-05-70,37.224716836279,55.98204598125
Стадион «Свиблово»,"Тенистый проезд, дом 6",radugasviblovo@mail.ru,sviblovo.mos.ru,(499) 181-73-51,37.6353229874179,55.8598676342216
Дворовая территория,"площадь Юности, дом 3",gbuzelenograd@zelao.mos.ru,gbuzelenograd.ru/,(499) 736-48-41,37.2127508677689,56.0031028109569
Дворовая территория,"площадь Юности, дом 3",gbuzelenograd@zelao.mos.ru,gbuzelenograd.ru/,(499) 736-48-41,37.212572669059,56.0030560035704
Плоскостное спортивное сооружение,"Смольная улица, дом 40",artostroverh@mail.ru,levoberezhny.mos.ru/,(495) 456-10-01,37.476930176319,55.8676495330539
Дворовая территория,"Беломорская улица, дом 14, корпус 1",artostroverh@mail.ru,levoberezhny.mos.ru/,(495) 456-10-01,37.4720761715708,55.8617169218943
Плоскостное спортивное сооружение,"Смольная улица, дом 40",artostroverh@mail.ru,levoberezhny.mos.ru/,(495) 456-10-01,37.47711793095,55.8677053363466
Дворовая территория,"Каширский проезд, дом 9, корпус 1",songs@mos.ru,nagatino-sadovniki.mos.ru,(499) 612-07-46,37.6236610473766,55.6591964340303
Дворовая территория,"Каширский проезд, дом 9, корпус 1",songs@mos.ru,nagatino-sadovniki.mos.ru,(499) 612-07-46,37.6237030510117,55.659331871152
Дворовая территория,"Днепропетровская улица, дом 16, корпус 4",mchertanovo@yandex.ru,chertanovocentr.ru,(495) 389-16-66,37.5805206566013,55.61702780138
Физкультурно-оздоровительный комплекс «Центр развития детского спорта «Юность»,"улица Зорге, дом 30А",support@junost-tennis.ru,www.юность-спорт.рф,(495) 530-30-20,37.5064537426645,55.7944761525732
Физкультурно-оздоровительный комплекс «Центр развития детского спорта «Юность»,"улица Зорге, дом 30А",support@junost-tennis.ru,www.юность-спорт.рф,(495) 530-30-20,37.5068701316914,55.7952122789964
Физкультурно-оздоровительный комплекс «Центр развития детского спорта «Юность»,"улица Зорге, дом 30А",support@junost-tennis.ru,www.юность-спорт.рф,(495) 530-30-20,37.5071625179577,55.7949506455397
Физкультурно-оздоровительный комплекс «Центр развития детского спорта «Юность»,"улица Зорге, дом 30А",support@junost-tennis.ru,www.юность-спорт.рф,(495) 530-30-20,37.5070181794109,55.7950799131259
Физкультурно-оздоровительный комплекс «Центр развития детского спорта «Юность»,"улица Зорге, дом 30А",support@junost-tennis.ru,www.юность-спорт.рф,(495) 530-30-20,37.5074654687498,55.7952279231753
Дворовая территория,"посёлок Воскресенское, улица Юрьев Сад, дом 12",voskresenskoe@mos.ru,admspvoskresenskoe.ru,(495) 659-48-22,37.4677736677312,55.5291446733258
Дворовая территория,"посёлок Воскресенское, улица Юрьев Сад, дом 10",voskresenskoe@mos.ru,admspvoskresenskoe.ru,(495) 659-51-00,37.4182283856641,55.5106041277147
Комплекс спортивных сооружений ГБУ «ЦОП» Москомспорта,"Преображенская площадь, дом 4",cop@mossport.ru,cop.mossport.ru/,(499) 780-15-82,37.8779104395594,55.815818386258
Комплекс спортивных сооружений ГБУ «ЦОП» Москомспорта,"Преображенская площадь, дом 4",cop@mossport.ru,cop.mossport.ru/,(499) 780-15-82,37.8783579167177,55.815991195689
"Парк, озелененная городская территория «Сокольники»","3-й Лучевой просек, дом 1, строение 1",info@park.sokolniki.com,park.sokolniki.com,(499) 393-92-22,37.6718424044502,55.7973561321718
"Парк, озелененная городская территория «Сокольники»","3-й Лучевой просек, дом 1, строение 1",info@park.sokolniki.com,park.sokolniki.com,(499) 393-92-22,37.6720337180176,55.7972160574057
Государственное автономное учреждение культуры города Москвы «Парк культуры и отдыха «Сокольники»,"1-й Лучевой просек, дом 5",info@park.sokolniki.com,park.sokolniki.com,(499) 393-92-22,37.6625640621275,55.7959856623947
Государственное автономное учреждение культуры города Москвы «Парк культуры и отдыха «Сокольники»,"1-й Лучевой просек, дом 5",info@park.sokolniki.com,park.sokolniki.com,(499) 393-92-22,37.6718456117981,55.7973375113189
Учебно-спортивный центр «Труд»,"Варшавское шоссе, дом 14, строение 3",swimtrud@yandex.ru,www.swimtrud.ru,(495) 958-14-70,37.618371346763,55.6952451172657
Учебно-спортивный центр «Труд»,"Варшавское шоссе, дом 14, строение 3",swimtrud@yandex.ru,www.swimtrud.ru,(495) 958-14-70,37.6174663933344,55.6946020072627
"Парк, озелененная городская территория «Парк «Фестивальный»","улица Сущёвский Вал, дом 56, строение 4",,mospark.ru/home/parki-moskvy/parki-tsao/festivalnyj-park.html,(495) 688-57-87,37.621848842687,55.7911545767284
Дворовая территория,"Кировоградская улица, дом 22",chertanovocentr@mail.ru,chertanovocentr.mos.ru,(495) 389-16-66,37.6015944558126,55.6167723816575
"Парк, озелененная городская территория «Сквер Родная гавань»","Кировоградская улица, дом 19, корпус 1",gbuchc@mail.ru,www.gbuchc.ru/,(495) 316-73-66,37.6028243766517,55.6064755742004
Дворовая территория,"Шипиловский проезд, дом 57, корпус 2",sosbr@mos.ru,orehovo-borisovo-juzhnoe.mos.ru,(495) 343-24-83,37.7086628073237,55.604140932634
Дворовая территория,"Шипиловский проезд, дом 57, корпус 2",sosbr@mos.ru,orehovo-borisovo-juzhnoe.mos.ru,(495) 343-24-83,37.7088760429403,55.60416769546
Фитнес клуб «Х-Фит»,"Угличская улица, дом 13, строение 1",rtk-manager@xfit.ru,www.xfit.ru,(499) 682-72-66,37.5667895526064,55.9019406305881
Фитнес клуб «Х-Фит»,"Угличская улица, дом 13, строение 1",rtk-manager@xfit.ru,www.xfit.ru,(499) 682-72-66,37.5672764642456,55.9019295784544
Дворовая территория,"Астрадамская улица, дом 15",zhil-tim@mail.ru,zhiltim-peo.wixsite.com/plumber-ru,(495) 611-27-74,37.5616261180523,55.8151300648088
Фитнес клуб «Марина клаб»,"Ленинградское шоссе, дом 25А, строение 4",public@marina-club.ru,www.marina-club.ru/,(495) 363-60-61,37.4793327989502,55.8274221562657
Фитнес клуб «Марина клаб»,"Ленинградское шоссе, дом 25А, строение 4",public@marina-club.ru,www.marina-club.ru/,(495) 363-60-61,37.4795634689247,55.8274402730713
Фитнес клуб «Марина клаб»,"Ленинградское шоссе, дом 25А, строение 4",public@marina-club.ru,www.marina-club.ru/,(495) 363-60-61,37.479788774482,55.8274568805301
Фитнес клуб «Марина клаб»,"Ленинградское шоссе, дом 25А, строение 4",public@marina-club.ru,www.marina-club.ru/,(495) 363-60-61,37.4799979867852,55.8274719781088
Фитнес клуб «Марина клаб»,"Ленинградское шоссе, дом 25А, строение 4",public@marina-club.ru,www.marina-club.ru/,(495) 363-60-61,37.4802206101341,55.8274900957003
Дворовая территория,"Кировоградская улица, дом 44А, корпус 2",chu-zhil@yandex.ru,chertanovocentr.mos.ru,(495) 381-66-51,37.5947891947486,55.5986653008538
Учебно-спортивный комплекс «Искра»,"Сельскохозяйственная улица, дом 26, строение 6",info@iskra-sport.ru,iskra-sport.ru,(499) 181-36-14,37.6426634374799,55.8384607722915
Учебно-спортивный комплекс «Искра»,"Сельскохозяйственная улица, дом 26, строение 6",info@iskra-sport.ru,iskra-sport.ru,(499) 181-36-14,37.64267710849,55.8381532586832
Комплекс спортивных сооружений «Теннисный клуб «Спорт Лайт»,"1-я Владимирская улица, дом 10Д",,vseorg.ru/allcomp/54862-towns/moskva/sport-otdyh-turizm/tennisnye-kluby-korty/1001381-sport-layt-tennisnyy-klub.html,(905) 529-02-67,37.7713861095582,55.759965990039
Комплекс спортивных сооружений «Теннисный клуб «Спорт Лайт»,"1-я Владимирская улица, дом 10Д",,vseorg.ru/allcomp/54862-towns/moskva/sport-otdyh-turizm/tennisnye-kluby-korty/1001381-sport-layt-tennisnyy-klub.html,(905) 529-02-67,37.7709596383248,55.7600207386931
Плоскостное спортивное сооружение,"проезд Кадомцева, дом 11, корпус 2",,vk.com/mk_bogatyr,(916) 431-81-32,37.6624681702525,55.8276951882056
Плоскостное спортивное сооружение,"проезд Кадомцева, дом 11, корпус 2",,vk.com/mk_bogatyr,(916) 431-81-32,37.6626965876086,55.8275499289649
Плоскостное спортивное сооружение,"проезд Кадомцева, дом 11, корпус 2",,vk.com/mk_bogatyr,(916) 431-81-32,37.6630053912079,55.8274586390085
Сквер по Олонецкому проезду,"Олонецкий проезд, дом 20",info@bapark.ru,bapark.ru,(499) 184-34-22,37.6611906467469,55.8802880774562
"Зона отдыха «Покровский берег», пляж «Химки-2»","Иваньковское шоссе, дом 2",info@mosparks.ru,mosparks.ru/,(495) 640-73-55,37.4718054784215,55.8326337182974
Спортивный комплекс образовательного учреждения,"Борисовский проезд, дом 13",996@edu.mos.ru,sch996.mskobr.ru,(495) 390-07-09,37.7224001916893,55.6274490607586
Спортивный комплекс образовательного учреждения,"улица Барышиха, дом 17, корпус 1",1944@edu.mos.ru,schusz1944.mskobr.ru,(495) 754-15-79,37.34922034809,55.843012263042
Спортивный комплекс дошкольного образовательного учреждения,"город Зеленоград, корпус 864",1528@edu.mos.ru,gym1528zg.mskobr.ru,(499) 729-81-82,37.205346216646,55.972476800301
Спортивный комплекс образовательного учреждения,"улица Академика Бакулева, дом 20",109@edu.mos.ru,co109.mskobr.ru,(499) 737-48-58,37.475872664237,55.640203443438
Спортивный комплекс образовательного учреждения,"аллея Жемчуговой, дом 7",1028@edu.mos.ru,sch1028v.mskobr.ru,(495) 370-51-00,37.826223650254,55.732933495368
Московский дворец пионеров на Воробьёвых Горах,"улица Косыгина, дом 17, корпус 1",vg@edu.mos.ru,vg.mskobr.ru,(499) 137-90-25,37.558123616503,55.705004914338
Московский дворец пионеров на Воробьёвых Горах,"улица Косыгина, дом 17, корпус 1",vg@edu.mos.ru,vg.mskobr.ru,(499) 137-90-25,37.55816617214,55.705117378361
Спортивный комплекс образовательного учреждения,"Инициативная улица, дом 1",si-intel@edu.mos.ru,int.mskobr.ru,(499) 444-25-71,37.459866983723,55.716557349889
Спортивный комплекс образовательного учреждения,"Инициативная улица, дом 1",si-intel@edu.mos.ru,int.mskobr.ru,(499) 444-25-71,37.460118286466,55.716590659166
Спортивный комплекс образовательного учреждения,"улица Гарибальди, дом 8, корпус 1",117@edu.mos.ru,sch117.mskobr.ru,(499) 134-45-17,37.535949397056,55.675094085331
Спортивный комплекс образовательного учреждения,"улица Паршина, дом 39",kurchat@edu.mos.ru,kurchat.mskobr.ru,(499) 194-10-44,37.451508023541,55.788461878773
Спортивный комплекс образовательного учреждения,"Камчатская улица, дом 10",1598@edu.mos.ru,lyc1598v.mskobr.ru,(495) 466-34-14,37.821846868658,55.8283232978
Спортивный комплекс образовательного учреждения,"Новосибирская улица, дом 8А",1352@edu.mos.ru,sch1352v.mskobr.ru,(495) 466-59-01,37.823212172981,55.816552820841
Спортивный комплекс образовательного учреждения,"Флотская улица, дом 60",sch651@mail.ru,gym1583s-new.mskobr.ru,(495) 453-44-25,37.508670313655,55.853705150309
Спортивный комплекс образовательного учреждения,"Востряковский проезд, дом 5Б",667@edu.mos.ru,sch667u.mskobr.ru,(495) 383-84-56,37.642364384328,55.583405017374
Спортивный комплекс образовательного учреждения,"микрорайон Северное Чертаново, корпус 809",1158@edu.mos.ru,sch1158.mskobr.ru,(495) 319-34-50,37.598460876742,55.634341151284
Спортивный комплекс образовательного учреждения,"Университетский проспект, дом 3",2086@edu.mos.ru,sch2086uz.mskobr.ru,(495) 930-50-70,37.550216450442,55.6947452944
Спортивный комплекс образовательного учреждения,"Родниковая улица, дом 20, корпус 1",1596@edu.mos.ru,gym1596.mskobr.ru,(495) 733-56-73,37.3795216441801,55.6344868616948
Спортивный комплекс образовательного учреждения,"Костромская улица, дом 14, корпус 1",1370@edu.mos.ru,sch1370sv.mskobr.ru,(499) 902-22-27,37.594803962411,55.883377678638
Спортивный комплекс образовательного учреждения,"Бибиревская улица, дом 5",1370@edu.mos.ru,sch1370sv.mskobr.ru,(499) 902-22-27,37.59469637217,55.88132837679
Спортивный комплекс образовательного учреждения «ГБОУ «ЦОиС «Москва-98» Москомспорта»,"улица Удальцова, дом 40",s1953@mossport.ru,sch1953.mskobr.ru,(499) 432-39-01,37.494520442943,55.684462386508
Спортивный комплекс образовательного учреждения,"5-я Парковая улица, дом 60",crtd@edu.mos.ru,crtd.mskobr.ru,(499) 163-91-32,37.788281441686,55.805686962939
Спортивный комплекс образовательного учреждения,"улица Александра Невского, дом 4",cdt@edu.mos.ru,cdt.mskobr.ru,(499) 251-90-21,37.5927028693304,55.7776118101071
Спортивный комплекс образовательного учреждения,"3-й квартал Капотня, дом 24",kapotnya@edu.mos.ru,kapotnya.mskobr.ru,(495) 355-84-47,37.7979200067063,55.6352040604917
Городской стадион,"город Троицк, Октябрьский проспект, дом 14",troitsk@mos.ru,admtroitsk.ru,(495) 851-00-75,37.2989344468157,55.4757998162135
Дворовая территория,"город Зеленоград, корпус 158А",gbuzelenograd@zelao.mos.ru,gbuzelenograd.ru/,(499) 736-78-86,37.2045452174385,56.010919637794
Дворовая территория,"город Зеленоград, корпус 1118",gbukrukovo@zelao.mos.ru,gbukrukovo.ru/,(499) 731-77-78,37.1840357230856,55.9963384941572
Дворовая территория,"город Зеленоград, корпус 1615",gbukrukovo@mail.ru,gbuzelenograd.ru/,(499) 717-75-10,37.1564835961766,55.9733319680996
Дворовая территория,"улица Марьинский Парк, дом 35, строение 1",L_dez@inbox.ru,lublino.mos.ru,(495) 350-18-88,37.7899340762393,55.665102941529
Дворовая территория,"Шипиловская улица, дом 5, корпус 1",sonbr@mos.ru,gbu-obs.ru/,(495) 394-01-36,37.7023874303216,55.6186940161454
Спортивный комплекс образовательного учреждения,"улица Маршала Катукова, дом 21, корпус 2",1519@edu.mos.ru,gym1519.mskobr.ru,(495) 757-37-17,37.413507192799,55.807906603715
Горнолыжный комплекс «Кант»,"Электролитный проезд, дом 7Б, строение 2",info@kant-sport.ru,www.kant.ru/sport,(495) 604-10-21,37.611479946292,55.6754239223316
Дворовая территория,"Неманский проезд, дом 1, корпус 3",vmo_strogino@mail.ru,Строгино.рф,(495) 942-82-55,37.3978958036398,55.8173290219661
Спортивный комплекс образовательного учреждения,"Белозерская улица, дом 12",gyms@edu.mos.ru,gsg.mskobr.ru,(495) 707-07-62,37.615099247677,55.896339911878
Дворец тенниса «ЦСКА»,"Ленинградский проспект, дом 39, строение 12",brd@cska.ru,cska.ru,(495) 613-79-01,37.5376136949134,55.7931077239513
Дворец тенниса «ЦСКА»,"Ленинградский проспект, дом 39, строение 12",brd@cska.ru,cska.ru,(495) 613-79-01,37.537372964279,55.7932177368645
Дворец тенниса «ЦСКА»,"Ленинградский проспект, дом 39, строение 12",brd@cska.ru,cska.ru,(495) 613-79-01,37.5361659702222,55.7930243155834
Дворовая территория,"Кировоградская улица, дом 22",chertanovocentr@mail.ru,chertanovocentr.mos.ru,(495) 389-16-66,37.6018125162623,55.6167539004076
Дворовая территория,"Планерная улица, дом 14, корпус 5",severnoe-tushino@mos.ru,severnoe-tushino.mos.ru/,(495) 948-46-12,37.4392174131703,55.8629797010332
Дворовая территория,"Планерная улица, дом 14, корпус 5",severnoe-tushino@mos.ru,severnoe-tushino.mos.ru/,(495) 948-46-12,37.4389427133196,55.8629139243225
Фитнес клуб «Х-Фит»,"Угличская улица, дом 13, строение 1",rtk-manager@xfit.ru,www.xfit.ru,(499) 682-72-66,37.5670282692088,55.9019391237209
Дворовая территория,"проезд Досфлота, дом 16, корпус 1",SZAO-UTUSH@mos.ru,tushino-juzhnoe.mos.ru/,(495) 490-65-20,37.4582787033511,55.8485195795954
"Парк, озелененная городская территория «Памятник природы «Серебряный бор»","Таманская улица, дом 2А, строение 1",dir-serbor@mos.eco.ru,www.mospriroda.ru,(499) 199-01-10,37.4069886460755,55.7781408541792
Спортивный комплекс образовательного учреждения,"Тамбовская улица, дом 10",1636@edu.mos.ru,gym1636u.mskobr.ru,(495) 397-05-83,37.746671101582,55.603818999393
Дворовая территория,"улица Мусы Джалиля, дом 9, корпус 6",Sozbk@uao.mos.ru,zyablikovo.mos.ru,(499) 725-43-94,37.7498321922328,55.6273594331645
Стадион «Свиблово»,"Тенистый проезд, дом 6",radugasviblovo@mail.ru,sviblovo.mos.ru,(499) 181-73-51,37.6372112625656,55.8609213089333
Комплекс спортивных сооружений,"город Троицк, Центральная улица, дом 15",troitsk@mos.ru,admtroitsk.ru,(495) 840-66-46,37.3033749573821,55.4711998094142
Физкультурно-оздоровительный комплекс «Арена Плей»,"посёлок Коммунарка, дом 11, строение 1",info@arenaplay.ru,arenaplay.ru,(495) 428-59-33,37.4798808142613,55.5697454110007
Физкультурно-оздоровительный комплекс «Арена Плей»,"посёлок Коммунарка, дом 11, строение 1",info@arenaplay.ru,arenaplay.ru,(495) 428-59-33,37.4795969310363,55.5696922485207
Комплекс спортивных сооружений,"город Троицк, Центральная улица, дом 15",troitsk@mos.ru,admtroitsk.ru,(495) 840-66-46,37.303176473915,55.4712927502958
Комплекс спортивных сооружений «Будь Здоров»,"посёлок завода Мосрентген, дом 39",bzsport1@yandex.ru,www.bzsport.ru,(495) 339-00-16,37.4774341704141,55.6174467709417
Комплекс спортивных сооружений «Будь Здоров»,"посёлок завода Мосрентген, дом 39",bzsport1@yandex.ru,www.bzsport.ru,(495) 339-00-16,37.477684765786,55.6174559411082
Комплекс спортивных сооружений «Будь Здоров»,"посёлок завода Мосрентген, дом 39",bzsport1@yandex.ru,www.bzsport.ru,(495) 339-00-16,37.4779686573305,55.6174786606623
Комплекс спортивных сооружений «Будь Здоров»,"посёлок завода Мосрентген, дом 39",bzsport1@yandex.ru,www.bzsport.ru,(495) 339-00-16,37.4782350343933,55.6175057575511
Комплекс спортивных сооружений «Будь Здоров»,"посёлок завода Мосрентген, дом 39",bzsport1@yandex.ru,www.bzsport.ru,(495) 339-00-16,37.4773230833279,55.6178397025463
Комплекс спортивных сооружений «Будь Здоров»,"посёлок завода Мосрентген, дом 39",bzsport1@yandex.ru,www.bzsport.ru,(495) 339-00-16,37.4775850688942,55.6178631857989
Комплекс спортивных сооружений «Будь Здоров»,"посёлок завода Мосрентген, дом 39",bzsport1@yandex.ru,www.bzsport.ru,(495) 339-00-16,37.4770222486977,55.6178009219474
Комплекс спортивных сооружений «Русская теннисная академия»,"вблизи деревни Рогозинино, дом 7Б/Н",info@vnukovocountry.club,vnukovocountry.club/sport/,(495) 032-98-19,37.1865456353935,55.5394817407982
Комплекс спортивных сооружений «Русская теннисная академия»,"вблизи деревни Рогозинино, дом 7Б/Н",info@vnukovocountry.club,vnukovocountry.club/sport/,(495) 032-98-19,37.1862398635658,55.5395212860303
Комплекс спортивных сооружений «Русская теннисная академия»,"вблизи деревни Рогозинино, дом 7Б/Н",info@vnukovocountry.club,vnukovocountry.club/sport/,(495) 032-98-19,37.1857972990779,55.5395760406603
Комплекс спортивных сооружений «Будь Здоров»,"посёлок завода Мосрентген, дом 39",bzsport1@yandex.ru,www.bzsport.ru,(495) 339-00-16,37.4775069340764,55.6181827678561
Комплекс спортивных сооружений «Русская теннисная академия»,"вблизи деревни Рогозинино, дом 7Б/Н",info@vnukovocountry.club,vnukovocountry.club/sport/,(495) 032-98-19,37.1849228989395,55.5396733826385
Комплекс спортивных сооружений «Русская теннисная академия»,"вблизи деревни Рогозинино, дом 7Б/Н",info@vnukovocountry.club,vnukovocountry.club/sport/,(495) 032-98-19,37.1852152597221,55.539639921487
Комплекс спортивных сооружений «Русская теннисная академия»,"вблизи деревни Рогозинино, дом 7Б/Н",info@vnukovocountry.club,vnukovocountry.club/sport/,(495) 032-98-19,37.1846493136197,55.5397174904853
Комплекс спортивных сооружений «Русская теннисная академия»,"вблизи деревни Рогозинино, дом 7Б/Н",info@vnukovocountry.club,vnukovocountry.club/sport/,(495) 032-98-19,37.1843462240013,55.5397615985051
Комплекс спортивных сооружений «Русская теннисная академия»,"вблизи деревни Рогозинино, дом 7Б/Н",info@vnukovocountry.club,vnukovocountry.club/sport/,(495) 032-98-19,37.1854888450414,55.5396155858877
Комплекс спортивных сооружений,"город Троицк, Центральная улица, дом 15",troitsk@mos.ru,admtroitsk.ru,(495) 840-66-46,37.3054563515777,55.47120895115
Спортивный комплекс образовательного учреждения,"улица Борисовские Пруды, дом 12, корпус 2",1998@edu.mos.ru,sch1998u.mskobr.ru/,(495) 341-59-96,37.745150820513,55.635756223324
Спортивный комплекс образовательного учреждения,"Новокосинская улица, дом 41",1591@edu.mos.ru,gym1591.mskobr.ru,(495) 702-32-39,37.871189638167,55.743925365843
Спортивный комплекс образовательного учреждения,"Палехская улица, дом 8",1374@edu.mos.ru,sch1374sv.mskobr.ru,(499) 183-01-56,37.697186441491,55.86505714964
Фитнес клуб «Спортивно-оздоровительный комплекс Газпром Трансгаз Москва»,"посёлок Газопровод, дом 101, корпус 9",info@gtm.gazprom.ru,www.gprometey.ru/,(495) 817-16-58,37.4774603428472,55.5802613333247
"Парк, озелененная городская территория «Сокольники»","3-й Лучевой просек, дом 1, строение 1",info@park.sokolniki.com,park.sokolniki.com,(499) 393-92-22,37.6718492436473,55.7968819267448
Комплекс спортивных сооружений «Теннисный центр «Спартак»,"Майский просек, дом 7, строение 7",tennis@spartak-academy.ru,tenniscentre-spartak.ru/,(925) 278-79-03,37.6803831896186,55.8036019444621
Комплекс спортивных сооружений «Теннисный центр «Спартак»,"Майский просек, дом 7, строение 7",tennis@spartak-academy.ru,tenniscentre-spartak.ru/,(925) 278-79-03,37.6811933878564,55.8035605548821
Комплекс спортивных сооружений «Теннисный центр «Спартак»,"Майский просек, дом 7, строение 7",tennis@spartak-academy.ru,tenniscentre-spartak.ru/,(925) 278-79-03,37.681405427001,55.8035490728603
Комплекс спортивных сооружений «Теннисный центр «Спартак»,"Майский просек, дом 7, строение 7",tennis@spartak-academy.ru,tenniscentre-spartak.ru/,(925) 278-79-03,37.6816310760235,55.8034806148314
Комплекс спортивных сооружений «Теннисный центр «Спартак»,"Майский просек, дом 7, строение 7",tennis@spartak-academy.ru,tenniscentre-spartak.ru/,(925) 278-79-03,37.6805273470145,55.8038952887557
Комплекс спортивных сооружений «Теннисный центр «Спартак»,"Майский просек, дом 7, строение 7",tennis@spartak-academy.ru,tenniscentre-spartak.ru/,(925) 278-79-03,37.6809666154373,55.8036345148322
Комплекс спортивных сооружений «Теннисный центр «Спартак»,"Майский просек, дом 7, строение 7",tennis@spartak-academy.ru,tenniscentre-spartak.ru/,(925) 278-79-03,37.6807862008393,55.8038254513379
Комплекс спортивных сооружений «Теннисный центр «Спартак»,"Майский просек, дом 7, строение 7",tennis@spartak-academy.ru,tenniscentre-spartak.ru/,(925) 278-79-03,37.6806627370233,55.8042171915101
Комплекс спортивных сооружений «Теннисный центр «Спартак»,"Майский просек, дом 7, строение 7",tennis@spartak-academy.ru,tenniscentre-spartak.ru/,(925) 278-79-03,37.6812081639895,55.804121191892
Комплекс спортивных сооружений «Теннисный центр «Спартак»,"Майский просек, дом 7, строение 7",tennis@spartak-academy.ru,tenniscentre-spartak.ru/,(925) 278-79-03,37.6810902973268,55.8045606915489
Комплекс спортивных сооружений «Теннисный центр «Спартак»,"Майский просек, дом 7, строение 7",tennis@spartak-academy.ru,tenniscentre-spartak.ru/,(925) 278-79-03,37.6808179025784,55.8046642050698
Комплекс спортивных сооружений «Теннисный центр «Спартак»,"Майский просек, дом 7, строение 7",tennis@spartak-academy.ru,tenniscentre-spartak.ru/,(925) 278-79-03,37.6816283433364,55.8044936337023
Комплекс спортивных сооружений «Теннисный центр «Спартак»,"Майский просек, дом 7, строение 7",tennis@spartak-academy.ru,tenniscentre-spartak.ru/,(925) 278-79-03,37.6820966228841,55.8044187205458
Комплекс спортивных сооружений «Теннисный центр «Спартак»,"Майский просек, дом 7, строение 7",tennis@spartak-academy.ru,tenniscentre-spartak.ru/,(925) 278-79-03,37.6813467618676,55.8045398539554
Крытые теннисные корты «Спортивная школа олимпийского резерва Москвич»,"Волгоградский проспект, дом 46/15, строение 16",moskvich@sport-moskvich.ru,www.sport-moskvich.ru,(499) 178-71-26,37.7352242385371,55.7069727177277
Крытые теннисные корты «Спортивная школа олимпийского резерва Москвич»,"Волгоградский проспект, дом 46/15, строение 16",moskvich@sport-moskvich.ru,www.sport-moskvich.ru,(499) 178-71-26,37.7354227220042,55.7069696888112
Крытые теннисные корты «Спортивная школа олимпийского резерва Москвич»,"Волгоградский проспект, дом 46/15, строение 16",moskvich@sport-moskvich.ru,www.sport-moskvich.ru,(499) 178-71-26,37.7349721108897,55.7069757466439
Крытые теннисные корты «Спортивная школа олимпийского резерва Москвич»,"Волгоградский проспект, дом 46/15, строение 16",moskvich@sport-moskvich.ru,www.sport-moskvich.ru,(499) 178-71-26,37.7347159599288,55.7069766931739
Спортивный комплекс образовательного учреждения,"Суздальская улица, дом 22Б",1200@edu.mos.ru,sch1200.mskobr.ru,(495) 701-05-00,37.8584332516593,55.7411075474061
Парк (особо охраняемая природная территория),"Липецкая улица, дом 26",oopt.uao@gmail.com,www.ooptuao.ru,(495) 326-46-74,37.6793333252878,55.5897492042517
"Парк, озелененная городская территория «Джамгаровский парк»","Стартовая улица, дом 10",info@bapark.ru,bapark.ru,(499) 184-34-22,37.7007110774905,55.8889489777961
"Парк, озелененная городская территория «Рекреационная зона отдыха «Терлецкая Дубрава»","Свободный проспект, дом 2А",ppkio@mail.ru,www.perovskiy-park.ru/,(495) 309-53-42,37.8206470004985,55.766173599831
"Парк, озелененная городская территория «Парк 850-летия»","Поречная улица, дом 13, корпус 1",park850@mail.ru,parkseason.ru/parki-moskvi/park-850-letiya-moskvy/,(495) 657-45-05,37.7404038387374,55.6418427701482
"Парк, озелененная городская территория «Парк 850-летия»","Поречная улица, дом 13, корпус 1",park850@mail.ru,parkseason.ru/parki-moskvi/park-850-letiya-moskvy/,(495) 657-45-05,37.7404081126214,55.6419703820683
Спортивный комплекс высшего учебного заведения,"Шереметьевская улица, дом 29",info@mgpu.ru,university-school.mskobr.ru,(499) 181-26-16,37.614447779098,55.804058697828
Спортивный комплекс образовательного учреждения,"Ломоносовский проспект, дом 13",118@edu.mos.ru,sch118uz.mskobr.ru,(495) 930-22-24,37.539312012353,55.688768557731
Дворовая территория,"Ковров переулок, дом 15",ur_tagansky@mos.ru,tagan.mos.ru,(495) 911-12-81,37.6854413055572,55.7441081314515
Комплекс спортивных сооружений «Теннисный центр «Спартак»,"Майский просек, дом 7, строение 7",tennis@spartak-academy.ru,tenniscentre-spartak.ru/,(925) 278-79-03,37.6805290877826,55.8034751200818
Комплекс спортивных сооружений «Теннисный центр «Спартак»,"Майский просек, дом 7, строение 7",tennis@spartak-academy.ru,tenniscentre-spartak.ru/,(925) 278-79-03,37.6823876666353,55.8043864557669
Парк народный «Братеевский»,"улица Борисовские Пруды, дом 8, корпус 1",sobrt@mos.ru,brateevo.mos.ru,(495) 342-42-70,37.7284805780464,55.6385493769153
Спортивный комплекс «Кировский»,"улица Пришвина, дом 20",mso@mos.sport,mos.sport/,(495) 681-01-48,37.6018031674322,55.8864812679591
Спортивный комплекс «Борисово»,"улица Борисовские Пруды, дом 29",borisovosk@mgfso.ru,mgfso.mossport.ru/object,(495) 390-33-75,37.7270216340561,55.6358220693595
Спортивный комплекс образовательного учреждения,"Веерная улица, дом 38, корпус 2",814@edu.mos.ru,sch814z.mskobr.ru,(495) 441-71-22,37.481238990864,55.714071880587
Спортивный комлекс «Связист»,"Большая Тихоновская улица, дом 5",gu_sokolniki@rambler.ru,tennis-play.com/tennis-courts/sportivnyyi_kompleks_svyazist_stadion,(499) 268-48-91,37.687987521246,55.8077288120256
Спортивный комлекс «Связист»,"Большая Тихоновская улица, дом 5",gu_sokolniki@rambler.ru,tennis-play.com/tennis-courts/sportivnyyi_kompleks_svyazist_stadion,(499) 268-48-91,37.6877649421317,55.807656988108
Спортивный комплекс образовательного учреждения,"Таймырская улица, дом 5",763@edu.mos.ru,sch763sv-new.mskobr.ru,(495) 474-79-51,37.69765309503,55.88391125704
Спортивный комплекс «Борисово»,"улица Борисовские Пруды, дом 29",borisovosk@mgfso.ru,mgfso.mossport.ru/object,(495) 390-33-75,37.7265006220462,55.6358699997854
Стадион «Свиблово»,"Тенистый проезд, дом 6",radugasviblovo@mail.ru,sviblovo.mos.ru,(499) 181-73-51,37.6347919100342,55.8596044004572
Спортивный комплекс образовательного учреждения,"Университетский проспект, дом 7",2086@edu.mos.ru,sch2086uz.mskobr.ru,(495) 938-00-25,37.5494781201935,55.6952167270111
Спортивный комплекс образовательного учреждения,"Университетский проспект, дом 7",2086@edu.mos.ru,sch2086uz.mskobr.ru,(495) 938-00-25,37.549797017881,55.695035171242
Спортивный комлекс «Связист»,"Большая Тихоновская улица, дом 5",gu_sokolniki@rambler.ru,tennis-play.com/tennis-courts/sportivnyyi_kompleks_svyazist_stadion,(499) 268-48-91,37.686637707105,55.8069819089739
Спортивный комплекс образовательного учреждения,"город Зеленоград, корпус 509",1557@edu.mos.ru,lyc1557zg.mskobr.ru,(499) 734-13-40,37.2305764100588,55.9971687340905
Спортивный комплекс образовательного учреждения,"1-й Кожуховский проезд, дом 17",1272@edu.mos.ru,sch1272.mskobr.ru,(495) 710-36-39,37.663990040574,55.7085890315048
Спортивный комплекс образовательного учреждения,"Филёвский бульвар, дом 13, корпус 2",1114@edu.mos.ru,sch1114z.mskobr.ru,(499) 145-19-63,37.4830493759604,55.7644238481448
Спортивный комплекс образовательного учреждения,"Щёлковское шоссе, дом 29А",319@edu.mos.ru,sch319v.mskobr.ru,(495) 462-56-83,37.777580786495,55.810978212786
Спортивный комплекс образовательного учреждения,"Филёвский бульвар, дом 13, корпус 2",1114@edu.mos.ru,sch1114z.mskobr.ru,(499) 145-19-63,37.4832800459367,55.7644162874348
Спортивный комплекс образовательного учреждения,"Веерная улица, дом 38, корпус 2",814@edu.mos.ru,sch814z.mskobr.ru,(495) 441-71-22,37.481367736896,55.714199071465
Комплекс спортивных сооружений «Академия «Спартак» по футболу имени Ф. Черенкова»,"Малый Олений переулок, дом 23, строение 1А",school@spartak.com,spartak.com/main/business/2629,(499) 268-88-77,37.695243089198,55.8034414617501
Комплекс спортивных сооружений «Академия «Спартак» по футболу имени Ф. Черенкова»,"Малый Олений переулок, дом 23, строение 1А",school@spartak.com,spartak.com/main/business/2629,(499) 268-88-77,37.6955031379142,55.8037320006478
Спортивный комплекс образовательного учреждения,"улица Академика Бакулева, дом 20",109@edu.mos.ru,co109.mskobr.ru,(499) 737-48-58,37.476377841959,55.640431536696
Спортивный комплекс образовательного учреждения,"3-я Нововатутинская улица, дом 13, корпус 3",1392@edu.mos.ru,schtn1392.mskobr.ru,(495) 746-45-13,37.346231,55.516662
Спортивный комплекс образовательного учреждения,"город Зеленоград, корпус 1140",info@mgpu.ru,university-school.mskobr.ru,(499) 710-94-42,37.170602989623,55.99454725214
Спортивный комплекс образовательного учреждения,"1-я Останкинская улица, дом 29",1415@edu.mos.ru,sch1415sv.mskobr.ru,(495) 602-20-41,37.625634244672,55.824404103882
"Спортивный комплекс высшего учебного заведения «Теннисный центр Российского государственного университета физической культуры, спорта, молодёжи и туризма»","Сиреневый бульвар, дом 4, строение 12",,www.sportedu.ru,(495) 961-31-11,37.7682900842476,55.7994942374329
"Спортивный комплекс высшего учебного заведения «Теннисный центр Российского государственного университета физической культуры, спорта, молодёжи и туризма»","Сиреневый бульвар, дом 4, строение 12",,www.sportedu.ru,(495) 961-31-11,37.7685888059366,55.7995079346597
"Спортивный комплекс высшего учебного заведения «Теннисный центр Российского государственного университета физической культуры, спорта, молодёжи и туризма»","Сиреневый бульвар, дом 4, строение 12",,www.sportedu.ru,(495) 961-31-11,37.7682626542795,55.7998201816124
"Спортивный комплекс высшего учебного заведения «Теннисный центр Российского государственного университета физической культуры, спорта, молодёжи и туризма»","Сиреневый бульвар, дом 4, строение 12",,www.sportedu.ru,(495) 961-31-11,37.7685525122984,55.7998230585751
"Спортивный комплекс высшего учебного заведения «Теннисный центр Российского государственного университета физической культуры, спорта, молодёжи и туризма»","Сиреневый бульвар, дом 4, строение 12",,www.sportedu.ru,(495) 961-31-11,37.7682542592463,55.8001319177594
"Спортивный комплекс высшего учебного заведения «Теннисный центр Российского государственного университета физической культуры, спорта, молодёжи и туризма»","Сиреневый бульвар, дом 4, строение 12",,www.sportedu.ru,(495) 961-31-11,37.768547576313,55.8001565905068
Стадион «РЖД Арена»,"Большая Черкизовская улица, владение 125, строение 1",,www.fclm.ru/ru/club/stadium,(499) 161-42-83,37.7409561027298,55.8050588308411
Стадион «РЖД Арена»,"Большая Черкизовская улица, владение 125, строение 1",,www.fclm.ru/ru/club/stadium,(499) 161-42-83,37.7412309608652,55.8051154554514
Комплекс спортивных сооружений ГБУ «Московская теннисная академия» Москомспорта,"улица Удальцова, дом 54",olimpiets@mossport.ru,olimpiets.mossport.ru,(499) 431-97-92,37.4901147134586,55.6865393863505
Комплекс спортивных сооружений ГБУ «Московская теннисная академия» Москомспорта,"улица Удальцова, дом 54",olimpiets@mossport.ru,olimpiets.mossport.ru,(499) 431-97-92,37.4901908211388,55.6867191505581
Комплекс спортивных сооружений ГБУ «Московская теннисная академия» Москомспорта,"улица Удальцова, дом 54",olimpiets@mossport.ru,olimpiets.mossport.ru,(499) 431-97-92,37.4907244334482,55.6865756077621
Комплекс спортивных сооружений ГБУ «Московская теннисная академия» Москомспорта,"улица Удальцова, дом 54",olimpiets@mossport.ru,olimpiets.mossport.ru,(499) 431-97-92,37.4908281810562,55.6867228708571
Комплекс спортивных сооружений ГБУ «Московская теннисная академия» Москомспорта,"улица Удальцова, дом 54",olimpiets@mossport.ru,olimpiets.mossport.ru,(499) 431-97-92,37.4903857001125,55.6868587792214
Комплекс спортивных сооружений ГБУ «Московская теннисная академия» Москомспорта,"Чоботовская улица, дом 4, корпус 1",olimpiets@mossport.ru,olimpiets.mossport.ru/,(499) 737-00-07,37.3538961024665,55.6460711100826
Комплекс спортивных сооружений ГБУ «Московская теннисная академия» Москомспорта,"Чоботовская улица, дом 4, корпус 1",olimpiets@mossport.ru,olimpiets.mossport.ru/,(499) 737-00-07,37.3541965098759,55.6460100373748
Комплекс спортивных сооружений ГБУ «Московская теннисная академия» Москомспорта,"Чоботовская улица, дом 4, корпус 1",olimpiets@mossport.ru,olimpiets.mossport.ru/,(499) 737-00-07,37.3544808240316,55.645937078473
Национальный теннисный центр им. Хуана Антонио Самаранча,"Ленинградское шоссе, владение 45",ntc-moscow@russport.ru,ntc-moscow.ru/,(499) 283-91-19,37.4713446746029,55.8454921946308
Национальный теннисный центр им. Хуана Антонио Самаранча,"Ленинградское шоссе, владение 45",ntc-moscow@russport.ru,ntc-moscow.ru/,(499) 283-91-19,37.4717572483875,55.8452112538568
Национальный теннисный центр им. Хуана Антонио Самаранча,"Ленинградское шоссе, владение 45",ntc-moscow@russport.ru,ntc-moscow.ru/,(499) 283-91-19,37.474377058576,55.8457462376232
Национальный теннисный центр им. Хуана Антонио Самаранча,"Ленинградское шоссе, владение 45",ntc-moscow@russport.ru,ntc-moscow.ru/,(499) 283-91-19,37.4709503873111,55.8457092000195
Национальный теннисный центр им. Хуана Антонио Самаранча,"Ленинградское шоссе, владение 45",ntc-moscow@russport.ru,ntc-moscow.ru/,(499) 283-91-19,37.4714749084234,55.8451756404671
Национальный теннисный центр им. Хуана Антонио Самаранча,"Ленинградское шоссе, владение 45",ntc-moscow@russport.ru,ntc-moscow.ru/,(499) 283-91-19,37.4721992073164,55.8456436651007
Национальный теннисный центр им. Хуана Антонио Самаранча,"Ленинградское шоссе, владение 45",ntc-moscow@russport.ru,ntc-moscow.ru/,(499) 283-91-19,37.4716032807335,55.8455523165177
Национальный теннисный центр им. Хуана Антонио Самаранча,"Ленинградское шоссе, владение 45",ntc-moscow@russport.ru,ntc-moscow.ru/,(499) 283-91-19,37.4724309692539,55.8448100925518
Физкультурно-оздоровительный комплекс «Комета»,"Строгинский бульвар, дом 3, корпус 1",,fok-kometa.ru,(495) 942-77-65,37.3981035095198,55.8059015267688
Фитнес-клуб «Вита-спорт»,"Живописная улица, дом 21, корпус 2",,vitaclub.ru,(495) 032-36-36,37.4483470637879,55.7901759176754
Фитнес-клуб «Вита-спорт»,"Живописная улица, дом 21, корпус 2",,vitaclub.ru,(495) 032-36-36,37.4478376181827,55.7901834719972
Дворовая территория,"улица Свободы, дом 67, корпус 4",severnoe-tushino@mos.ru,severnoe-tushino.mos.ru/,(495) 948-46-12,37.4462214565227,55.8569221898108
Фитнес-клуб «Вита-спорт»,"Живописная улица, дом 21, корпус 2",,vitaclub.ru,(495) 032-36-36,37.4477677066407,55.7905023393925
Дворовая территория,"улица Свободы, дом 67, корпус 4",severnoe-tushino@mos.ru,severnoe-tushino.mos.ru/,(495) 948-46-12,37.446452126498,55.8569478363724
НОУ «Детская теннисная школа «Белокаменная-КР»,"Самокатная улица, дом 2А, строение 1",belokamennaya@inbox.ru,kamelzon.ru,(495) 362-22-86,37.6724616976894,55.7582632379143
Фитнес-клуб «Вита-спорт»,"Живописная улица, дом 21, корпус 2",,vitaclub.ru,(495) 032-36-36,37.4480949361405,55.7901759176754
Национальный теннисный центр им. Хуана Антонио Самаранча,"Ленинградское шоссе, владение 45",ntc-moscow@russport.ru,ntc-moscow.ru/,(499) 283-91-19,37.4734490142573,55.8447750650429
Национальный теннисный центр им. Хуана Антонио Самаранча,"Ленинградское шоссе, владение 45",ntc-moscow@russport.ru,ntc-moscow.ru/,(499) 283-91-19,37.4720336226194,55.84526261974
Спортивный комплекс высшего учебного заведения «Московский государственный институт международных отношений»,"проспект Вернадского, дом 76, корпус Е, строение 2",fisvos@yandex.ru,mgimo.ru,(495) 234-84-02,37.4833263202975,55.6724103640578
Фитнес-клуб «Вита-спорт»,"Живописная улица, дом 21, корпус 2",,vitaclub.ru,(495) 032-36-36,37.4480681140504,55.7904932721597
Национальный теннисный центр им. Хуана Антонио Самаранча,"Ленинградское шоссе, владение 45",ntc-moscow@russport.ru,ntc-moscow.ru/,(499) 283-91-19,37.4723703925119,55.845288900552
Национальный теннисный центр им. Хуана Антонио Самаранча,"Ленинградское шоссе, владение 45",ntc-moscow@russport.ru,ntc-moscow.ru/,(499) 283-91-19,37.4725070567631,55.8457175144971
Национальный теннисный центр им. Хуана Антонио Самаранча,"Ленинградское шоссе, владение 45",ntc-moscow@russport.ru,ntc-moscow.ru/,(499) 283-91-19,37.4718822304711,55.8455898736255
Дворовая территория,"Петрозаводская улица, дом 28, корпус 5",ur.hovrino@yandex.ru,khovrino.mos.ru/,(495) 456-03-60,37.4877158553895,55.870700177605
Гребной канал Москва,"Крылатская улица, дом 2, строение 19",info@sport.center,canalmoscow.ru/,(499) 149-39-39,37.4423956301173,55.7557581474922
Гребной канал Москва,"Крылатская улица, дом 2, строение 19",info@sport.center,canalmoscow.ru/,(499) 149-39-39,37.4425002362686,55.7563284113524
Гребной канал Москва,"Крылатская улица, дом 2, строение 19",info@sport.center,canalmoscow.ru/,(499) 149-39-39,37.4421113159621,55.7558048088625
Гребной канал Москва,"Крылатская улица, дом 2, строение 19",info@sport.center,canalmoscow.ru/,(499) 149-39-39,37.4432727743692,55.7561066030911
Гребной канал Москва,"Крылатская улица, дом 2, строение 19",info@sport.center,canalmoscow.ru/,(499) 149-39-39,37.4425485160312,55.7560708511169
Гребной канал Москва,"Крылатская улица, дом 2, строение 19",info@sport.center,canalmoscow.ru/,(499) 149-39-39,37.4422534730397,55.7561092941412
Гребной канал Москва,"Крылатская улица, дом 2, строение 19",info@sport.center,canalmoscow.ru/,(499) 149-39-39,37.4429872431817,55.7561435000882
Стадион «Крылья Советов»,"проспект Будённого, дом 17А, строение 3",,ks-fitness.ru,(499) 785-81-24,37.7297576308542,55.7741940938584
Дворовая территория,"Петрозаводская улица, дом 28, корпус 5",ur.hovrino@yandex.ru,khovrino.mos.ru/,(495) 456-03-60,37.4875830860428,55.8708289547567
Стадион «Крылья Советов»,"проспект Будённого, дом 17А, строение 3",,ks-fitness.ru,(499) 785-81-24,37.7299585885542,55.7742694966251
Стадион «Крылья Советов»,"проспект Будённого, дом 17А, строение 3",,ks-fitness.ru,(499) 785-81-24,37.7301894819366,55.7742867016692
Дворовая территория,"улица Кржижановского, дом 3",academsport@mail.ru,akademichesky.mos.ru/,(499) 129-04-41,37.5618192805027,55.6832622365356
"Парк, озелененная городская территория","2-й Южнопортовый проезд, дом 15",kholonya@list.ru,uzhnoport.mos.ru,(495) 958-98-64,37.6827021977786,55.6989854098158
Спортивный комплекс «Конструктор»,"Большая Филёвская улица, дом 32",info@sportcosmos.ru,www.sportcosmos.ru/sk-konstruktor,(495) 120-51-20,37.4709603750594,55.7408607940253
Спортивный комплекс «Конструктор»,"Большая Филёвская улица, дом 32",info@sportcosmos.ru,www.sportcosmos.ru/sk-konstruktor,(495) 120-51-20,37.470748453523,55.7411032882531
Спортивный комплекс «Конструктор»,"Большая Филёвская улица, дом 32",info@sportcosmos.ru,www.sportcosmos.ru/sk-konstruktor,(495) 120-51-20,37.4707430891051,55.7408037585138
Спортивный комплекс «Конструктор»,"Большая Филёвская улица, дом 32",info@sportcosmos.ru,www.sportcosmos.ru/sk-konstruktor,(495) 120-51-20,37.4705207119135,55.7410283647351
Государственное автономное учреждение культуры города Москвы «Центральный парк культуры и отдыха имени М. Горького»,"улица Крымский Вал, дом 9, строение 1",official@park-gorkogo.com,www.park-gorkogo.com,(495) 995-00-20,37.5906701395161,55.7182765400984
Государственное автономное учреждение культуры города Москвы «Центральный парк культуры и отдыха имени М. Горького»,"улица Крымский Вал, дом 9, строение 1",official@park-gorkogo.com,www.park-gorkogo.com,(495) 995-00-20,37.5908611744995,55.7183625040687
Спортивный комплекс высшего учебного заведения «Московский энергетический институт (МЭИ)»,"2-й Краснокурсантский проезд, дом 12, строение 1",stadionenergiya@rambler.ru,mpeisport.ru/stadion-energiya,(495) 361-19-58,37.7030863204986,55.761769503034
Спортивный комплекс высшего учебного заведения «Московский энергетический институт (МЭИ)»,"2-й Краснокурсантский проезд, дом 12, строение 1",stadionenergiya@rambler.ru,mpeisport.ru/stadion-energiya,(495) 361-19-58,37.7026813069373,55.7619551817754
Спортивный комплекс высшего учебного заведения «Московский энергетический институт (МЭИ)»,"2-й Краснокурсантский проезд, дом 12, строение 1",stadionenergiya@rambler.ru,mpeisport.ru/stadion-energiya,(495) 361-19-58,37.7032907227331,55.7616786666167
Спортивный комплекс высшего учебного заведения «Московский энергетический институт (МЭИ)»,"2-й Краснокурсантский проезд, дом 12, строение 1",stadionenergiya@rambler.ru,mpeisport.ru/stadion-energiya,(495) 361-19-58,37.7028943094677,55.7618654038537
Дворовая территория,"улица Рогова, дом 1, строение 1",shukino-uprava@mos.ru,schukino.mos.ru,(499) 194-36-51,37.4637947618699,55.7943730901896
Парк «Лефортовский»,"Красноказарменная улица, дом 3",mgomz@culture.mos.ru,avtodor-uvao.ru,(499) 261-70-20,37.6907619803059,55.7659523803617
Парк «Лефортовский»,"Красноказарменная улица, дом 3",mgomz@culture.mos.ru,avtodor-uvao.ru,(499) 261-70-20,37.6905613614347,55.7656489028307
Парк «Лефортовский»,"Красноказарменная улица, дом 3",mgomz@culture.mos.ru,avtodor-uvao.ru,(499) 261-70-20,37.6901023752831,55.765996438737
Парк «Лефортовский»,"Красноказарменная улица, дом 3",mgomz@culture.mos.ru,avtodor-uvao.ru,(499) 261-70-20,37.6898066305705,55.7660444241925
Спортивный комплекс «Дружба»,"улица Миклухо-Маклая, дом 4",information@rudn.ru,www.rudn.ru/,(499) 936-87-87,37.4969090321522,55.6522431422648
Спортивный комплекс «Дружба»,"улица Миклухо-Маклая, дом 4",information@rudn.ru,www.rudn.ru/,(499) 936-87-87,37.496722289083,55.6521171526511
Спортивный комплекс «Дружба»,"улица Миклухо-Маклая, дом 4",information@rudn.ru,www.rudn.ru/,(499) 936-87-87,37.4972365104776,55.6519997282017
Спортивный комплекс «Дружба»,"улица Миклухо-Маклая, дом 4",information@rudn.ru,www.rudn.ru/,(499) 936-87-87,37.4963684620097,55.6524898533363
Спортивный комплекс «Дружба»,"улица Миклухо-Маклая, дом 4",information@rudn.ru,www.rudn.ru/,(499) 936-87-87,37.4961770405929,55.6523382565616
Спортивный комплекс «Дружба»,"улица Миклухо-Маклая, дом 4",information@rudn.ru,www.rudn.ru/,(499) 936-87-87,37.4974920830702,55.6518896629751
Дворовая территория,"улица Тёплый Стан, дом 9, корпус 5",tstan-sport07@yandex.ru,teplystan.mos.ru,(495) 338-38-00,37.494613,55.619887
Горнолыжный комплекс «Лата Трэк»,"Крылатская улица, дом 1",reception@lata-track.ru,www.spusk.ru,(495) 780-22-77,37.4268503056995,55.7508585445575
Дворовая территория,"Каширский проезд, дом 9, корпус 1",songs@mos.ru,nagatino-sadovniki.mos.ru,(499) 612-07-46,37.6237252475354,55.6594485508613
"Парк, озелененная городская территория «Ландшафтный парк Митино»","улица Барышиха, дом 8",info@bapark.ru,bapark.ru,(499) 184-34-22,37.3580411302397,55.8314763765262
Парк «Сад культуры и отдыха имени Н.Э. Баумана»,"Старая Басманная улица, дом 15А, строение 4",sadbaumana@culture.mos.ru,sadbaumana.ru,(499) 261-58-83,37.660404,55.765853
Сквер по Олонецкому проезду,"Олонецкий проезд, дом 20",info@bapark.ru,bapark.ru,(499) 184-34-22,37.6550280725313,55.8740136992066
Физкультурно-оздоровительный комплекс с бассейном «Теннис-ру»,"деревня Летово, Малая Летовская улица, дом 8",info@tennis.ru,tennis.ru/,(495) 980-10-10,37.4106859841308,55.5693421018717
НОУ «Детская теннисная школа «Белокаменная-КР»,"Самокатная улица, дом 2А, строение 1",belokamennaya@inbox.ru,kamelzon.ru,(495) 362-22-86,37.6720328905982,55.7579194985093
НОУ «Детская теннисная школа «Белокаменная-КР»,"Самокатная улица, дом 2А, строение 1",belokamennaya@inbox.ru,kamelzon.ru,(495) 362-22-86,37.6723356338656,55.757877568044
НОУ «Детская теннисная школа «Белокаменная-КР»,"Самокатная улица, дом 2А, строение 1",belokamennaya@inbox.ru,kamelzon.ru,(495) 362-22-86,37.6719520779769,55.7576085139593
НОУ «Детская теннисная школа «Белокаменная-КР»,"Самокатная улица, дом 2А, строение 1",belokamennaya@inbox.ru,kamelzon.ru,(495) 362-22-86,37.6722578498044,55.7575585663589
НОУ «Детская теннисная школа «Белокаменная-КР»,"Самокатная улица, дом 2А, строение 1",belokamennaya@inbox.ru,kamelzon.ru,(495) 362-22-86,37.6720218154108,55.7573457107392
Фитнес-клуб «Вита-спорт»,"Живописная улица, дом 21, корпус 2",,vitaclub.ru,(495) 032-36-36,37.4479164257261,55.789861140072
Фитнес-клуб «Вита-спорт»,"Живописная улица, дом 21, корпус 2",,vitaclub.ru,(495) 032-36-36,37.4481968600831,55.7898404258258
Спортивный городок «Лужники»,"улица Лужники, дом 24, строение 11",,luzhniki.ru,(495) 780-08-08,37.5450637725465,55.7246114776958
Спортивный городок «Лужники»,"улица Лужники, дом 24, строение 11",,luzhniki.ru,(495) 780-08-08,37.5461631514964,55.7254181813801
Спортивный городок «Лужники»,"улица Лужники, дом 24, строение 11",,luzhniki.ru,(495) 780-08-08,37.5459458925662,55.725483775514
Спортивный городок «Лужники»,"улица Лужники, дом 24, строение 11",,luzhniki.ru,(495) 780-08-08,37.5457125403819,55.7255645069008
Спортивный городок «Лужники»,"улица Лужники, дом 24, строение 11",,luzhniki.ru,(495) 780-08-08,37.5456159808574,55.7250737168085
Спортивный городок «Лужники»,"улица Лужники, дом 24, строение 11",,luzhniki.ru,(495) 780-08-08,37.5453853108821,55.7251596650962
Спортивный комплекс образовательного учреждения,"село Красное, дом 1Б/Н",nou@nika-school.ru,nounika.mskobr.ru,,37.30112678687,55.4149166963076
Спортивный городок «Лужники»,"улица Лужники, дом 24, строение 11",,luzhniki.ru,(495) 780-08-08,37.5447731752548,55.7248115825158
Спортивный городок «Лужники»,"улица Лужники, дом 24, строение 11",,luzhniki.ru,(495) 780-08-08,37.5452425618324,55.7247402463406
Дворовая территория,"город Зеленоград, корпус 1204",gbukrukovo@zelao.mos.ru,gbukrukovo.ru/,(499) 731-77-78,37.1952499778884,55.9987412266973
Комплекс спортивных сооружений,"город Троицк, Центральная улица, дом 15",troitsk@mos.ru,admtroitsk.ru,(495) 840-66-46,37.3041773938484,55.4711387478373
"Парк, озелененная городская территория «Ходынское поле»","Ходынский бульвар, дом 9",park-khodynka@mail.ru,parkhodynka.ru/,(903) 597-53-19,37.5317482612603,55.7872182192324
"Парк, озелененная городская территория «Ходынское поле»","Ходынский бульвар, дом 9",park-khodynka@mail.ru,parkhodynka.ru/,(903) 597-53-19,37.5314170318835,55.7871769157926
Дворец тенниса «ЦСКА»,"Ленинградский проспект, дом 39, строение 12",brd@cska.ru,cska.ru,(495) 613-79-01,37.539215168331,55.7940119351918
Дворец тенниса «ЦСКА»,"Ленинградский проспект, дом 39, строение 12",brd@cska.ru,cska.ru,(495) 613-79-01,37.5390003989269,55.7941046214431
Дворец тенниса «ЦСКА»,"Ленинградский проспект, дом 39, строение 12",brd@cska.ru,cska.ru,(495) 613-79-01,37.5369303558195,55.7922823977735
"Парк, озелененная городская территория «Красная Пахра»","поселение Краснопахорское, село Былово, дом 1",krasnopahorsckoe@yandex.ru,krasnaya-pahra.ru/,(495) 850-81-43,37.2582516382774,55.4394765076196
"Парк, озелененная городская территория «Красная Пахра»","поселение Краснопахорское, село Былово, дом 1",krasnopahorsckoe@yandex.ru,krasnaya-pahra.ru/,(495) 850-81-43,37.259153562645,55.4386882949928
"Парк, озелененная городская территория «Парк у прудов «Радуга»","Вешняковская улица, дом 16",ppkio@mail.ru,www.perovskiy-park.ru/,(495) 309-53-42,37.8275612645283,55.7318547081988
Спортивно-оздоровительный комплекс «Звезда»,"Большая Филёвская улица, дом 20",info@sportcosmos.ru,www.sportcosmos.ru/sok-zvezda,(495) 120-51-20,37.4969763136111,55.7493738691345
Спортивно-оздоровительный комплекс «Звезда»,"Большая Филёвская улица, дом 20",info@sportcosmos.ru,www.sportcosmos.ru/sok-zvezda,(495) 120-51-20,37.4972108153474,55.7494554640307
Спортивно-оздоровительный комплекс «Звезда»,"Большая Филёвская улица, дом 20",info@sportcosmos.ru,www.sportcosmos.ru/sok-zvezda,(495) 120-51-20,37.497155558197,55.7491325664855
Спортивно-оздоровительный комплекс «Звезда»,"Большая Филёвская улица, дом 20",info@sportcosmos.ru,www.sportcosmos.ru/sok-zvezda,(495) 120-51-20,37.4974440625006,55.7491836184547
Спортивный комплекс «Лаун-теннис»,"улица Паустовского, дом 4А",mso@mos.sport,mos.sport/,(495) 681-01-48,37.5365836598999,55.601736452591
Спортивный комплекс образовательного учреждения,"микрорайон Северное Чертаново, корпус 810",1158@edu.mos.ru,sch1158.mskobr.ru,(495) 319-34-50,37.5961536936204,55.6339131730825
Парк по Ангарской улице,"Ангарская улица, дом 53, корпус 1",Liapark@ya.ru,liapark.ru/park-angarskie-prudy,(499) 908-35-00,37.5278127478547,55.8760528947961
Национальный теннисный центр им. Хуана Антонио Самаранча,"Ленинградское шоссе, владение 45",ntc-moscow@russport.ru,ntc-moscow.ru/,(499) 283-91-19,37.4711430225231,55.84525350788
Дворец спорта «Лужники»,"улица Лужники, дом 24, строение 2",,luzhniki.ru,(499) 246-51-49,37.5486119199658,55.7204487523833
Дворец спорта «Лужники»,"улица Лужники, дом 24, строение 2",,luzhniki.ru,(499) 246-51-49,37.5483159315102,55.7203970609312
Дворец спорта «Лужники»,"улица Лужники, дом 24, строение 2",,luzhniki.ru,(499) 246-51-49,37.5481281768791,55.7207509853957
Дворец спорта «Лужники»,"улица Лужники, дом 24, строение 2",,luzhniki.ru,(499) 246-51-49,37.547741938781,55.7205704897247
Дворец спорта «Лужники»,"улица Лужники, дом 24, строение 2",,luzhniki.ru,(499) 246-51-49,37.5478948246938,55.7208862263345
Дворец спорта «Лужники»,"улица Лужники, дом 24, строение 2",,luzhniki.ru,(499) 246-51-49,37.5479967486374,55.7204451705145
Дворец спорта «Лужники»,"улица Лужники, дом 24, строение 2",,luzhniki.ru,(499) 246-51-49,37.5506494533531,55.7224645371893
Спортивный городок «Лужники»,"улица Лужники, дом 24, строение 11",,luzhniki.ru,(495) 780-08-08,37.5453236200748,55.7233508590734
Дворец спорта «Лужники»,"улица Лужники, дом 24, строение 2",,luzhniki.ru,(499) 246-51-49,37.5508452546112,55.7225774049396
Спортивный городок «Лужники»,"улица Лужники, дом 24, строение 11",,luzhniki.ru,(495) 780-08-08,37.5455998876033,55.7235501804145
Спортивный городок «Лужники»,"улица Лужники, дом 24, строение 11",,luzhniki.ru,(495) 780-08-08,37.5457421315603,55.7236529466981
Спортивный городок «Лужники»,"улица Лужники, дом 24, строение 11",,luzhniki.ru,(495) 780-08-08,37.5454523661075,55.7234526243674
Плоскостное спортивное сооружение,"деревня Белоусово, Московская улица, дом 6",novofedorovskoe@bk.ru,новофедоровское.рф/,(495) 842-03-03,36.9993531779098,55.4070579519941
Дворовая территория,"посёлок Коммунарка, Бачуринская улица, дом 22, корпус 2",sosenskoe@mos.ru,sosenskoe-omsu.ru/,(495) 817-89-59,37.4787033512819,55.5783229049907
Дворовая территория,"посёлок Коммунарка, Бачуринская улица, дом 22, корпус 1",sosenskoe@mos.ru,sosenskoe-omsu.ru/,(495) 817-89-59,37.4810776835365,55.5765845173495
Фитнес-клуб «Вита-спорт»,"Живописная улица, дом 21, корпус 2",,vitaclub.ru,(495) 032-36-36,37.4485187251649,55.7909345416986
Московский Гольф Клуб в Крылатском,"Островная улица, дом 2",krylatskoe.golf@yandex.ru,,(495) 234-74-51,37.4594158902883,55.7617838960126
Горнолыжный комплекс «Лата Трэк»,"Крылатская улица, дом 1",reception@lata-track.ru,www.spusk.ru,(495) 780-22-77,37.4265043007366,55.7506087757439
Спортивный комлекс «Связист»,"Большая Тихоновская улица, дом 5",gu_sokolniki@rambler.ru,tennis-play.com/tennis-courts/sportivnyyi_kompleks_svyazist_stadion,(499) 268-48-91,37.6884542256146,55.8076487536442
Спортивный комлекс «Связист»,"Большая Тихоновская улица, дом 5",gu_sokolniki@rambler.ru,tennis-play.com/tennis-courts/sportivnyyi_kompleks_svyazist_stadion,(499) 268-48-91,37.6882235998732,55.8076509459665
Физкультурно-оздоровительный комплекс «Южное Бутово»,"улица Поляны, дом 35",yuzhnoebutovofok@mgfso.ru,mgfso.mossport.ru/object,(495) 716-40-27,37.5503746149029,55.550939425855
Спортивный комплекс «Кировский»,"улица Пришвина, дом 20",mso@mos.sport,mos.sport/,(495) 681-01-48,37.6014457214456,55.8867228963276
Физкультурно-оздоровительный комплекс «Московская Академия тенниса»,"проспект Вернадского, дом 97, корпус 2",,,(499) 431-66-16,37.4924577361068,55.6684003724608
Национальный теннисный центр им. Хуана Антонио Самаранча,"Ленинградское шоссе, владение 45",ntc-moscow@russport.ru,ntc-moscow.ru/,(499) 283-91-19,37.4715151415588,55.8458010266552
Частная спортивная площадка,"Химкинский бульвар, дом 16",info@merkury.biz,skhodnenskay-1.ru/,(495) 643-12-23,37.4441380693321,55.8533728280246
Дворовая территория,"улица Рогова, дом 1, строение 1",shukino-uprava@mos.ru,schukino.mos.ru,(499) 194-36-51,37.4639942956315,55.7943852236619
Дворовая территория,"улица Рогова, дом 1, строение 1",shukino-uprava@mos.ru,schukino.mos.ru,(499) 194-36-51,37.464461,55.794423
Дворовая территория,"Измайловский проспект, дом 73А",izmaylovo@vao.mos.ru,izmaylowo.mos.ru/,,37.792564,55.789385
Дворовая территория,"Измайловский проспект, дом 73А",izmaylovo@vao.mos.ru,izmaylowo.mos.ru/,,37.792564,55.789385
Дворовая территория,"Озёрная улица, дом 32, корпус 2",ochakovo-Uprava@mos.ru,ochakovo.mos.ru/,(495) 437-99-27,37.4501022687867,55.6753953129011
Дворовая территория,"Нагатинская набережная, дом 44, корпус 1",sonzt@mos.ru,nagatinsky-zaton.mos.ru,(499) 614-76-21,37.6770107913689,55.6844083625201
Спортивный комплекс высшего учебного заведения трех зальный корпус «Московский государственный университет имени Михаила Васильевича Ломоносова»,"Ленинские Горы, дом 1, строение 37",,sportmsu.ru/sk_3z,(495) 939-55-71,37.5383621811959,55.7003430576567
Спортивный комплекс высшего учебного заведения «Московский государственный институт международных отношений»,"проспект Вернадского, дом 76, корпус Е, строение 2",fisvos@yandex.ru,mgimo.ru,(495) 234-84-02,37.4833290025069,55.6725459594379
Спортивный комплекс высшего учебного заведения «Московский государственный институт международных отношений»,"проспект Вернадского, дом 76, корпус Е, строение 2",fisvos@yandex.ru,mgimo.ru,(495) 234-84-02,37.483546261437,55.6721123901997
Спортивный комплекс высшего учебного заведения «Московский институт электронной техники»,"город Зеленоград, корпус 901",skmiet@mail.ru,miet.ru,(499) 720-85-51,37.2098810474581,55.9849054267785
Парк «Никулино»,"проспект Вернадского, дом 86Д",tender@zao.mos.ru,zao.mos.ru/,(495) 957-99-77,37.478802845363,55.6516879565795
"Парк, озелененная городская территория «Парк 850-летия»","Поречная улица, дом 13, корпус 1",park850@mail.ru,parkseason.ru/parki-moskvi/park-850-letiya-moskvy/,(495) 657-45-05,37.7795132496741,55.6554770581867
"Парк, озелененная городская территория «Парк 850-летия»","Поречная улица, дом 13, корпус 1",park850@mail.ru,parkseason.ru/parki-moskvi/park-850-letiya-moskvy/,(495) 657-45-05,37.7793604284585,55.6554605449101
"Парк, озелененная городская территория «Парк 850-летия»","Поречная улица, дом 13, корпус 1",park850@mail.ru,parkseason.ru/parki-moskvi/park-850-letiya-moskvy/,(495) 657-45-05,37.7503291837156,55.642939081292
"Парк, озелененная городская территория «Парк 850-летия»","Поречная улица, дом 13, корпус 1",park850@mail.ru,parkseason.ru/parki-moskvi/park-850-letiya-moskvy/,(495) 657-45-05,37.7794526091993,55.6562647108255
"Парк, озелененная городская территория «Парк 850-летия»","Поречная улица, дом 13, корпус 1",park850@mail.ru,parkseason.ru/parki-moskvi/park-850-letiya-moskvy/,(495) 657-45-05,37.7500126830518,55.6429117761883
